STARLINK-1577           
1 46063U 20055AN  25196.94877834  .00000608  00000+0  59721-4 0  9995
2 46063  53.0545  99.3894 0001380  89.7489 270.3658 15.06392984273349
STARLINK-1583           
1 46064U 20055AP  25196.91560590  .00001112  00000+0  93578-4 0  9990
2 46064  53.0557  99.5400 0001333  88.6578 271.4563 15.06389120273348
STARLINK-1525           
1 46066U 20055AR  25196.91376411  .00000118  00000+0  26794-4 0  9990
2 46066  53.0551  79.5473 0001401  90.2052 269.9098 15.06399563273611
STARLINK-1536           
1 46070U 20055AV  25196.95800340  .00001663  00000+0  13051-3 0  9999
2 46070  53.0551  79.3488 0001376  88.6593 271.4553 15.06390996273099
STARLINK-1542           
1 46073U 20055AY  25197.08331598  .00001556  00000+0  12336-3 0  9997
2 46073  53.0549  78.7889 0001375  89.5769 270.5377 15.06395173273110
STARLINK-1549           
1 46074U 20055AZ  25196.93588536  .00002980  00000+0  21890-3 0  9994
2 46074  53.0541  79.4511 0001285  84.1030 276.0105 15.06392603273097
STARLINK-1551           
1 46075U 20055BA  25196.96168050  .00001461  00000+0  11702-3 0  9997
2 46075  53.0550  79.3321 0001443  85.6849 274.4305 15.06382256273622
STARLINK-1552           
1 46076U 20055BB  25196.92113875  .00000981  00000+0  84764-4 0  9994
2 46076  53.0548  79.5118 0001272  91.9713 268.1421 15.06388168273601
STARLINK-1559           
1 46077U 20055BC  25196.91210913  .00010095  00000+0  62593-3 0  9997
2 46077  53.0521  78.2561 0005880  59.3942 300.7627 15.10299673273598
STARLINK-1566           
1 46079U 20055BE  25196.93956465  .00003417  00000+0  24823-3 0  9994
2 46079  53.0539  79.4304 0001534  81.4596 278.6567 15.06396226273627
STARLINK-1568           
1 46080U 20055BF  25196.89224430  .00018849  00000+0  78140-3 0  9997
2 46080  53.0720  63.5021 0005007  92.8639 267.2931 15.23929707273820
STARLINK-1578           
1 46082U 20055BH  25196.95430885  .00000958  00000+0  83207-4 0  9992
2 46082  53.0549  79.3678 0001421  89.6546 270.4606 15.06389194273625
STARLINK-1579           
1 46083U 20055BJ  25196.92387771  .00000424  00000+0  47395-4 0  9991
2 46083  53.0547  79.4900 0001407  92.4722 267.6428 15.06394747273614
BSAT-4B                 
1 46112U 20056A   25197.14350228 -.00000342  00000+0  00000+0 0  9994
2 46112   0.0444 187.4546 0004292 301.9188 326.3460  1.00272605 18039
MEV-2                   
1 46113U 20056B   25196.81989284 -.00000003  00000+0  00000+0 0  9992
2 46113   0.0442 237.4308 0000955 280.0116  70.6477  1.00269971 18848
GALAXY 30 (G-30)        
1 46114U 20056C   25196.67660602  .00000045  00000+0  00000+0 0  9992
2 46114   0.0179  53.2692 0002099  65.0223 294.0368  1.00272409 17915
STARLINK-1585           
1 46117U 20057A   25196.55990377 -.00001190  00000+0 -60991-4 0  9992
2 46117  53.0557 281.1399 0001258  94.0394 266.0738 15.06398827270600
STARLINK-1593           
1 46119U 20057C   25196.98937077  .00002875  00000+0  21193-3 0  9998
2 46119  53.0546 299.5592 0001376  93.9495 266.1652 15.06382452271041
STARLINK-1601           
1 46120U 20057D   25197.00773352  .00004296  00000+0  30692-3 0  9991
2 46120  53.0524 299.1266 0001059 111.6268 248.4834 15.06419980271050
STARLINK-1605           
1 46123U 20057G   25196.90454951  .00002035  00000+0  15554-3 0  9992
2 46123  53.0545 259.5929 0001342  91.3847 268.7295 15.06381959272213
STARLINK-1614           
1 46124U 20057H   25197.17730930  .00000348  00000+0  42278-4 0  9996
2 46124  53.0544 258.3649 0001086  82.4250 277.6862 15.06394918271647
STARLINK-1618           
1 46125U 20057J   25196.93010914  .00166410  00000+0  13845-2 0  9992
2 46125  53.0525 279.2948 0015267 308.2414  51.7227 15.68972807271922
STARLINK-1621           
1 46127U 20057L   25196.92482568  .00001324  00000+0  10772-3 0  9990
2 46127  53.0551 279.4960 0000951  77.8415 282.2681 15.06402023270657
STARLINK-1622           
1 46128U 20057M   25196.90410542  .00028406  00000+0  13426-2 0  9990
2 46128  53.0510 258.3863 0001264  46.8228 313.2872 15.19206378271610
STARLINK-1623           
1 46129U 20057N   25196.66127006 -.00000821  00000+0 -36264-4 0  9994
2 46129  53.0550 260.6807 0001158  84.9640 275.1481 15.06393206270908
STARLINK-1624           
1 46130U 20057P   25196.89349115 -.00000935  00000+0 -43907-4 0  9996
2 46130  53.0541 259.6418 0001172  88.6943 271.4180 15.06391845272183
STARLINK-1625           
1 46131U 20057Q   25196.50830041 -.00000605  00000+0 -21746-4 0  9999
2 46131  53.0557 281.3652 0001184  98.0665 262.0458 15.06396538271853
STARLINK-1639           
1 46135U 20057U   25197.25002315  .00308091  00000+0  11418-2 0  9992
2 46135  53.0376 217.4049 0015869 331.0854 137.8377 15.86586987272218
STARLINK-1643           
1 46136U 20057V   25197.25002315  .02367631  00000+0  63893-1 0  9993
2 46136  53.0551 286.8627 0001886 113.9090 340.6670 15.33524180271240
STARLINK-1586           
1 46137U 20057W   25196.58313769  .00058950  00000+0  61068-3 0  9990
2 46137  53.0481 252.1156 0004021  21.5221 338.5962 15.64141312271011
