OBJECT_NAME,OBJECT_ID,EPOCH,MEAN_MOTION,ECCENTRICITY,INCLINATION,RA_OF_ASC_NODE,ARG_OF_PERICENTER,MEAN_ANOMALY,EPHEMERIS_TYPE,CLASSIFICATION_TYPE,NORAD_CAT_ID,ELEMENT_SET_NO,REV_AT_EPOCH,BSTAR,MEAN_MOTION_DOT,MEAN_MOTION_DDOT
STARLINK-1577,2020-055AN,2025-07-15T22:46:14.448576,15.06392984,.000138,53.0545,99.3894,89.7489,270.3658,0,U,46063,999,27334,.59721E-4,.608E-5,0
STARLINK-1583,2020-055AP,2025-07-15T21:58:28.349760,15.06389120,.0001333,53.0557,99.5400,88.6578,271.4563,0,U,46064,999,27334,.93578E-4,.1112E-4,0
STARLINK-1525,2020-055AR,2025-07-15T21:55:49.219104,15.06399563,.0001401,53.0551,79.5473,90.2052,269.9098,0,U,46066,999,27361,.26794E-4,.118E-5,0
STARLINK-1536,2020-055AV,2025-07-15T22:59:31.493760,15.06390996,.0001376,53.0551,79.3488,88.6593,271.4553,0,U,46070,999,27309,.13051E-3,.1663E-4,0
STARLINK-1542,2020-055AY,2025-07-16T01:59:58.500672,15.06395173,.0001375,53.0549,78.7889,89.5769,270.5377,0,U,46073,999,27311,.12336E-3,.1556E-4,0
STARLINK-1549,2020-055AZ,2025-07-15T22:27:40.495104,15.06392603,.0001285,53.0541,79.4511,84.1030,276.0105,0,U,46074,999,27309,.2189E-3,.298E-4,0
STARLINK-1551,2020-055BA,2025-07-15T23:04:49.195200,15.06382256,.0001443,53.0550,79.3321,85.6849,274.4305,0,U,46075,999,27362,.11702E-3,.1461E-4,0
STARLINK-1552,2020-055BB,2025-07-15T22:06:26.388000,15.06388168,.0001272,53.0548,79.5118,91.9713,268.1421,0,U,46076,999,27360,.84764E-4,.981E-5,0
STARLINK-1559,2020-055BC,2025-07-15T21:53:26.228832,15.10299673,.000588,53.0521,78.2561,59.3942,300.7627,0,U,46077,999,27359,.62593E-3,.10095E-3,0
STARLINK-1566,2020-055BE,2025-07-15T22:32:58.385760,15.06396226,.0001534,53.0539,79.4304,81.4596,278.6567,0,U,46079,999,27362,.24823E-3,.3417E-4,0
STARLINK-1568,2020-055BF,2025-07-15T21:24:49.907520,15.23929707,.0005007,53.0720,63.5021,92.8639,267.2931,0,U,46080,999,27382,.7814E-3,.18849E-3,0
STARLINK-1578,2020-055BH,2025-07-15T22:54:12.284640,15.06389194,.0001421,53.0549,79.3678,89.6546,270.4606,0,U,46082,999,27362,.83207E-4,.958E-5,0
STARLINK-1579,2020-055BJ,2025-07-15T22:10:23.034144,15.06394747,.0001407,53.0547,79.4900,92.4722,267.6428,0,U,46083,999,27361,.47395E-4,.424E-5,0
BSAT-4B,2020-056A,2025-07-16T03:26:38.596992,1.00272605,.0004292,0.0444,187.4546,301.9188,326.3460,0,U,46112,999,1803,0,-.342E-5,0
MEV-2,2020-056B,2025-07-15T19:40:38.741376,1.00269971,.0000955,0.0442,237.4308,280.0116,70.6477,0,U,46113,999,1884,0,-.3E-7,0
GALAXY 30 (G-30),2020-056C,2025-07-15T16:14:18.760128,1.00272409,.0002099,0.0179,53.2692,65.0223,294.0368,0,U,46114,999,1791,0,.45E-6,0
STARLINK-1585,2020-057A,2025-07-15T13:26:15.685728,15.06398827,.0001258,53.0557,281.1399,94.0394,266.0738,0,U,46117,999,27060,-.60991E-4,-.119E-4,0
STARLINK-1593,2020-057C,2025-07-15T23:44:41.634528,15.06382452,.0001376,53.0546,299.5592,93.9495,266.1652,0,U,46119,999,27104,.21193E-3,.2875E-4,0
STARLINK-1601,2020-057D,2025-07-16T00:11:08.176128,15.06419980,.0001059,53.0524,299.1266,111.6268,248.4834,0,U,46120,999,27105,.30692E-3,.4296E-4,0
STARLINK-1605,2020-057G,2025-07-15T21:42:33.077664,15.06381959,.0001342,53.0545,259.5929,91.3847,268.7295,0,U,46123,999,27221,.15554E-3,.2035E-4,0
STARLINK-1614,2020-057H,2025-07-16T04:15:19.523520,15.06394918,.0001086,53.0544,258.3649,82.4250,277.6862,0,U,46124,999,27164,.42278E-4,.348E-5,0
STARLINK-1618,2020-057J,2025-07-15T22:19:21.429696,15.68972807,.0015267,53.0525,279.2948,308.2414,51.7227,0,U,46125,999,27192,.13845E-2,.16641E-2,0
STARLINK-1621,2020-057L,2025-07-15T22:11:44.938752,15.06402023,.0000951,53.0551,279.4960,77.8415,282.2681,0,U,46127,999,27065,.10772E-3,.1324E-4,0
STARLINK-1622,2020-057M,2025-07-15T21:41:54.708288,15.19206378,.0001264,53.0510,258.3863,46.8228,313.2872,0,U,46128,999,27161,.13426E-2,.28406E-3,0
STARLINK-1623,2020-057N,2025-07-15T15:52:13.733184,15.06393206,.0001158,53.0550,260.6807,84.9640,275.1481,0,U,46129,999,27090,-.36264E-4,-.821E-5,0
STARLINK-1624,2020-057P,2025-07-15T21:26:37.635360,15.06391845,.0001172,53.0541,259.6418,88.6943,271.4180,0,U,46130,999,27218,-.43907E-4,-.935E-5,0
STARLINK-1625,2020-057Q,2025-07-15T12:11:57.155424,15.06396538,.0001184,53.0557,281.3652,98.0665,262.0458,0,U,46131,999,27185,-.21746E-4,-.605E-5,0
STARLINK-1639,2020-057U,2025-07-16T06:00:02.000160,15.86586987,.0015869,53.0376,217.4049,331.0854,137.8377,0,U,46135,999,27221,.11418E-2,.308091E-2,0
STARLINK-1643,2020-057V,2025-07-16T06:00:02.000160,15.33524180,.0001886,53.0551,286.8627,113.9090,340.6670,0,U,46136,999,27124,.63893E-1,.2367631E-1,0
STARLINK-1586,2020-057W,2025-07-15T13:59:43.096416,15.64141312,.0004021,53.0481,252.1156,21.5221,338.5962,0,U,46137,999,27101,.61068E-3,.5895E-3,0
